PRAETORIAN SDA_603      
1 65566U 25203B   26086.28062753  .00000204  00000+0  17298-3 0  9990
2 65566  81.2997  86.4961 0010614  58.8165 301.4031 13.83894637 27378
PRAETORIAN SDA_604      
1 65567U 25203C   26086.10479290  .00000085  00000+0  67160-4 0  9991
2 65567  81.3013  86.9454 0006746  67.8068 292.3803 13.83036410 27332
PRAETORIAN SDA_605      
1 65568U 25203D   26086.23829699  .00000085  00000+0  66500-4 0  9995
2 65568  81.2977  86.5662 0009348  55.6335 304.5704 13.83531024 27361
PRAETORIAN SDA_606      
1 65569U 25203E   26086.29616705  .00000087  00000+0  68062-4 0  9991
2 65569  81.3014  86.7092 0006982  59.1653 301.0189 13.83530396 27367
PRAETORIAN SDA_607      
1 65570U 25203F   26086.27992560  .00000086  00000+0  66340-4 0  9993
2 65570  81.3006  86.5069 0009939  62.0556 298.1606 13.84369064 27376
PRAETORIAN SDA_608      
1 65571U 25203G   26086.08516844  .00000082  00000+0  63616-4 0  9999
2 65571  81.2966  86.8150 0007182  66.9690 293.2224 13.83889030 27332
PRAETORIAN SDA_609      
1 65572U 25203H   26086.26175388  .00000228  00000+0  19366-3 0  9998
2 65572  81.3006  86.6552 0008045  59.9003 300.2951 13.84299902 27365
PRAETORIAN SDA_610      
1 65573U 25203J   26086.28537563  .00000083  00000+0  64404-4 0  9991
2 65573  81.2968  86.5943 0007652  62.7629 297.4306 13.83912110 27367
PRAETORIAN SDA_611      
1 65574U 25203K   26086.25119102  .00000492  00000+0  43745-3 0  9992
2 65574  81.2964  86.7174 0006791  69.9411 290.2475 13.83298106 27352
PRAETORIAN SDA_612      
1 65575U 25203L   26086.27077946  .00000255  00000+0  21482-3 0  9995
2 65575  81.2987  86.4876 0010385  59.2002 301.0176 13.85027774 27370
PRAETORIAN SDA_613      
1 65576U 25203M   26086.23309175  .00000085  00000+0  66872-4 0  9998
2 65576  81.2958  86.6835 0006890  64.0243 296.1622 13.82943885 27358
PRAETORIAN SDA_614      
1 65577U 25203N   26086.24459486  .00000089  00000+0  68061-4 0  9997
2 65577  81.2973  86.5687 0008258  58.8219 301.3747 13.84767751 27371
PRAETORIAN SDA_615      
1 65578U 25203P   26086.27350137 -.00004032  00000+0 -36139-2 0  9997
2 65578  81.2985  86.4555 0010435  58.8959 301.3220 13.84454290 27376
PRAETORIAN SDA_616      
1 65579U 25203Q   26086.25025530  .00000206  00000+0  17652-3 0  9999
2 65579  81.3017  86.8131 0006625  69.3182 290.8684 13.83314015 27352
PRAETORIAN SDA_617      
1 65580U 25203R   26086.04759860  .00000082  00000+0  63583-4 0  9995
2 65580  81.2996  86.8398 0008609  59.5229 300.6776 13.83193609 27335
PRAETORIAN SDA_618      
1 65581U 25203S   26086.25824493  .00000186  00000+0  15419-3 0  9993
2 65581  81.2982  86.4394 0010892  58.8823 301.3401 13.84763306 27377
PRAETORIAN SDA_619      
1 65582U 25203T   26086.24465400  .00003382  00000+0  30371-2 0  9996
2 65582  81.3027  86.6246 0009572  59.1877 301.0220 13.83912724 27996
PRAETORIAN SDA_620      
1 65583U 25203U   26086.25663267  .00000179  00000+0  15118-3 0  9993
2 65583  81.2994  86.6118 0008719  57.2179 302.9816 13.83707666 27362
PRAETORIAN SDA_621      
1 65584U 25203V   26086.09504966  .00000091  00000+0  71518-4 0  9996
2 65584  81.2980  86.7059 0008443  54.2414 305.9526 13.83789674 27344
PRAETORIAN SDA_601      
1 65585U 25203W   26086.25521394  .00000255  00000+0  22054-3 0  9991
2 65585  81.2995  86.7815 0006477  68.3770 291.8076 13.83486819 27356
PROGRESS-MS 32          
1 65586U 25204A   26086.13218664  .00012923  00000+0  24583-3 0  9997
2 65586  51.6343 346.1324 0006239 237.1062 122.9326 15.48575012554500
NUSANTARA LIMA (NUSANT*)
1 65588U 25205A   26086.28357007 -.00000376  00000+0  00000+0 0  9995
2 65588   0.0468  46.0794 0000765 342.6907  10.8798  1.00269818  1897
COSMOS 2596 [GLONASS-K1]
1 65590U 25206B   26086.10328671 -.00000032  00000+0  00000+0 0  9994
2 65590  64.6810 317.8441 0012299 316.8399 224.0899  2.13100168  4169
STARLINK-35267          
1 65592U 25207A   26086.14308970  .00005578  00000+0  39055-3 0  9996
2 65592  97.6002 155.8033 0001676  91.6723 268.4696 15.05646163 30872
STARLINK-35269          
1 65593U 25207B   26086.17630611  .00003256  00000+0  22958-3 0  9995
2 65593  97.6005 155.9161 0000747 110.6367 249.4940 15.05677762 30884
STARLINK-35191          
1 65594U 25207C   26086.19292310  .00003046  00000+0  21518-3 0  9996
2 65594  97.6050 155.8948 0000722 134.4693 225.6593 15.05656477 30729
STARLINK-35261          
1 65595U 25207D   26086.15971912  .00007785  00000+0  54296-3 0  9998
2 65595  97.6022 155.9405 0001123  84.8866 275.2489 15.05661611 30893
STARLINK-35253          
1 65596U 25207E   26086.20123061  .00004276  00000+0  30037-3 0  9998
2 65596  97.6044 155.8819 0000671 114.7728 245.3569 15.05653880 30686
STARLINK-35263          
1 65597U 25207F   26086.18461961  .00002371  00000+0  16845-3 0  9995
2 65597  97.6035 155.9067 0000570 115.4276 244.7010 15.05652744 30892
STARLINK-35248          
1 65598U 25207G   26086.16800726  .00002977  00000+0  21041-3 0  9996
2 65598  97.6024 155.9296 0001219 104.1253 256.0109 15.05656232 30897
STARLINK-35245          
1 65599U 25207H   26086.15137016 -.00004327  00000+0 -29570-3 0  9999
2 65599  97.6015 155.9494 0001032 106.0308 254.1032 15.05667255 30894
STARLINK-35229          
1 65600U 25207J   26086.14030768  .00005541  00000+0  38784-3 0  9991
2 65600  97.6037 155.8090 0001391 112.7788 247.3586 15.05660422 30882
STARLINK-35234          
1 65601U 25207K   26086.19845897  .00003249  00000+0  22922-3 0  9994
2 65601  97.6047 155.8866 0000736 217.7294 142.3881 15.05655323 30892
STARLINK-35255          
1 65602U 25207L   26086.18185146  .00002498  00000+0  17724-3 0  9997
2 65602  97.6030 155.9101 0000693 122.9472 237.1821 15.05653468 30890
STARLINK-35250          
1 65603U 25207M   26086.16523377 -.00005904  00000+0 -40535-3 0  9991
2 65603  97.6022 155.9331 0000560 132.3764 227.7510 15.05644456 30896
STARLINK-35251          
1 65604U 25207N   26086.18738710  .00002873  00000+0  20319-3 0  9991
2 65604  97.6037 155.9028 0000688 172.2282 187.8956 15.05653723 30892
STARLINK-35171          
1 65605U 25207P   26086.17354545  .00002573  00000+0  18241-3 0  9999
2 65605  97.6025 155.9210 0000529 106.3943 253.7342 15.05654889 30738
STARLINK-35195          
1 65606U 25207Q   26086.14862474  .00005940  00000+0  41544-3 0  9995
2 65606  97.6030 155.9557 0000384 208.4252 151.6954 15.05660894 30890
STARLINK-35156          
1 65607U 25207R   26086.28708829  .00008919  00000+0  62110-3 0  9995
2 65607  97.6026 156.0789 0000798 123.1840 236.9464 15.05676547 30918
STARLINK-35185          
1 65608U 25207S   26086.17910376  .00016199  00000+0  11244-2 0  9996
2 65608  97.6002 155.9116 0000523 154.1596 205.9657 15.05646759 30892
STARLINK-35053          
1 65609U 25207T   26086.16246960  .00003138  00000+0  22151-3 0  9996
2 65609  97.6019 155.9370 0000535 135.4201 224.7069 15.05660515 30736
STARLINK-35178          
1 65610U 25207U   26086.19015903  .00004969  00000+0  34825-3 0  9996
2 65610  97.6034 155.8987 0001005 110.9650 249.1685 15.05663500 30896
STARLINK-35186          
1 65611U 25207V   26086.14584211  .00005102  00000+0  35732-3 0  9993
2 65611  97.6038 155.8050 0000396 179.8112 180.3115 15.05671530 30886
STARLINK-35154          
1 65612U 25207W   26086.15693734  .00009019  00000+0  62830-3 0  9996
2 65612  97.6022 155.9444 0000315 102.2210 257.9053 15.05658498 30732
STARLINK-35162          
1 65613U 25207X   26086.17077560  .00002399  00000+0  17041-3 0  9990
2 65613  97.6026 155.9257 0000458 151.9209 208.2043 15.05652448 30890
STARLINK-35206          
1 65614U 25207Y   26086.19569192  .00003424  00000+0  24138-3 0  9995
2 65614  97.6041 155.8908 0000467 140.2574 219.8688 15.05655508 30787
STARLINK-35174          
1 65615U 25207Z   26086.20399756  .00003861  00000+0  27159-3 0  9996
2 65615  97.6048 155.8784 0000245 146.3297 213.7945 15.05655372 30890
HJS-7A                  
1 65617U 25209A   26086.27766550 -.00000037  00000+0  16368-3 0  9990
2 65617  49.9992 299.3939 0000657  83.2198 276.8754 13.41454551 26675
HJS-7B                  
1 65618U 25209B   26086.27455306 -.00000042  00000+0  15373-3 0  9996
2 65618  49.9994 299.3817 0000830 215.4388 144.6434 13.41454703 26649
HJS-7C                  
1 65619U 25209C   26086.19715903 -.00000014  00000+0  20510-3 0  9998
2 65619  49.9997 298.9940 0001237 235.4713 124.6048 13.41449729 26631
HJS-7D                  
1 65620U 25209D   26086.26826588 -.00000021  00000+0  19232-3 0  9997
2 65620  50.0002 298.6787 0004819 133.0639 227.0642 13.41458568 26648
STARLINK-35247          
1 65622U 25210A   26086.25003472  .00055279  00000+0  18671-2 0  9998
2 65622  53.1570 225.6393 0001082  94.5458  59.4747 15.30158250  5865
STARLINK-35239          
1 65623U 25210B   26085.40139938  .00022046  00000+0  75404-3 0  9996
2 65623  53.1584 229.1764 0000724  57.3402 302.7669 15.30208945 30299
STARLINK-35151          
1 65624U 25210C   26085.37935124  .00022041  00000+0  75378-3 0  9999
2 65624  53.1631 229.7460 0000178 229.6297 130.4688 15.30213447 30202
STARLINK-35153          
1 65625U 25210D   26085.39612263  .00029491  00000+0  10035-2 0  9992
2 65625  53.1589 229.1414 0000508  37.1251 322.9785 15.30213800 30217
STARLINK-35225          
1 65626U 25210E   26085.67954236  .00036182  00000+0  12272-2 0  9993
2 65626  53.1570 228.0698 0000895  59.7445 300.3645 15.30214852 30330
STARLINK-35217          
1 65627U 25210F   26085.38673779  .00023564  00000+0  80489-3 0  9998
2 65627  53.1608 229.7930 0000550 325.4473  34.6492 15.30212838 30285
STARLINK-35128          
1 65628U 25210G   26085.68903869  .00021581  00000+0  73886-3 0  9998
2 65628  53.1535 228.1278 0000385  47.4309 312.6724 15.30190356 30331
STARLINK-35135          
1 65629U 25210H   26085.68376189  .00026603  00000+0  90663-3 0  9990
2 65629  53.1576 228.0958 0002235  97.8973 262.2281 15.30216568 30335
